STARLINK-3952           
1 52534U 22051B   22145.85649630  .00010740  00000+0  80683-4 0  9994
2 52534  53.2186 234.0651 0001984  39.0171 321.0992 15.73248696  3099
STARLINK-3958           
1 52535U 22051C   22145.85639758  .00033676  00000+0  24288-3 0  9996
2 52535  53.2204 234.0658 0002888 316.4732  43.6060 15.73247611  2354
STARLINK-3964           
1 52536U 22051D   22145.85621239  .00068354  00000+0  48728-3 0  9998
2 52536  53.2210 234.0642 0002945 349.6674  10.4286 15.73206800  2359
STARLINK-3897           
1 52537U 22051E   22145.85612033  .00036934  00000+0  26657-3 0  9997
2 52537  53.2204 234.0632 0002385  31.1135 329.0026 15.73185047  2423
STARLINK-3933           
1 52538U 22051F   22145.85590378  .00040232  00000+0  28982-3 0  9994
2 52538  53.2202 234.0627 0002478  30.4215 329.6948 15.73188335  2422
STARLINK-3757           
1 52539U 22051G   22145.85599648  .00070056  00000+0  49844-3 0  9991
2 52539  53.2204 234.0631 0002179   6.6444 353.4604 15.73244587  2423
STARLINK-3940           
1 52540U 22051H   22145.85545589  .00040374  00000+0  29043-3 0  9997
2 52540  53.2212 234.0598 0002535  20.4042 339.7079 15.73220293  2353
STARLINK-3845           
1 52541U 22051J   22145.85791208 -.00369022  00000+0 -31309-2 0  9992
2 52541  53.2217 234.0739 0002483   0.0736   0.0283 15.70063956  2423
STARLINK-3937           
1 52542U 22051K   22145.85537381  .00047194  00000+0  33890-3 0  9992
2 52542  53.2195 234.0576 0001988  38.0043 322.1118 15.73191475  2357
STARLINK-3926           
1 52543U 22051L   22145.85568559  .00048179  00000+0  34565-3 0  9998
2 52543  53.2206 234.0611 0002291  24.9548 335.1582 15.73203944  2357
STARLINK-3944           
1 52544U 22051M   22145.85729330 -.00442323  00000+0 -37897-2 0  9996
2 52544  53.2223 234.0717 0002957  23.3824 336.7329 15.70040124  2423
STARLINK-3939           
1 52545U 22051N   22145.85557822  .00092548  00000+0  65597-3 0  9999
2 52545  53.2207 234.0606 0002337  29.6534 330.4618 15.73220514  2420
STARLINK-3948           
1 52546U 22051P   22145.85495615  .00043967  00000+0  31638-3 0  9991
2 52546  53.2196 234.0565 0002700  22.6918 337.4221 15.73173050  2356
STARLINK-3869           
1 52547U 22051Q   22145.85739663 -.00385999  00000+0 -32770-2 0  9999
2 52547  53.2206 234.0707 0002152   3.5467 356.5567 15.70100746  2427
STARLINK-3931           
1 52548U 22051R   22145.85442953  .00081526  00000+0  58019-3 0  9995
2 52548  53.2195 234.0534 0003536  35.0517 325.0735 15.73173913  2355
STARLINK-3935           
1 52549U 22051S   22145.85505281  .00358573  00000+0  24382-2 0  9994
2 52549  53.2186 234.0569 0002387  35.2146 324.9032 15.73330276  2420
STARLINK-3965           
1 52550U 22051T   22145.85463196  .00240036  00000+0  16645-2 0  9991
2 52550  53.2192 234.0541 0002363  34.4027 325.7146 15.73224437  2428
STARLINK-3969           
1 52551U 22051U   22145.85483132  .00052264  00000+0  37389-3 0  9997
2 52551  53.2185 234.0564 0002639  31.3961 328.7217 15.73235344  2426
STARLINK-3966           
1 52552U 22051V   22145.85431013  .00074058  00000+0  52713-3 0  9992
2 52552  53.2193 234.0538 0002547  25.1666 334.9478 15.73212011  2422
STARLINK-3858           
1 52553U 22051W   22145.85474655  .00065539  00000+0  46810-3 0  9997
2 52553  53.2212 234.0553 0003699  26.0452 334.0754 15.73176388  2350
STARLINK-3770           
1 52554U 22051X   22145.72897508 -.00252397  00000+0 -21153-2 0  9994
2 52554  53.2213 234.6922 0004213  34.6104 325.5188 15.69997443  2400
STARLINK-3949           
1 52555U 22051Y   22145.85454304  .00075023  00000+0  53386-3 0  9993
2 52555  53.2212 234.0544 0004043  18.8938 341.2231 15.73207352  2428
STARLINK-3763           
1 52556U 22051Z   22145.91667824 -.00831205  00000+0 -76026-2 0  9993
2 52556  53.2174 233.7413 0001343  40.1533 302.6368 15.69617551  2430
STARLINK-3943           
1 52557U 22051AA  22145.85421125 -.00018847  00000+0 -13037-3 0  9992
2 52557  53.2208 234.0519 0003771  25.9619 334.1589 15.73148767  2420
STARLINK-3954           
1 52558U 22051AB  22145.85377083  .00059457  00000+0  42443-3 0  9999
2 52558  53.2195 234.0507 0002703  33.6649 326.4542 15.73232158  2427
STARLINK-3953           
1 52559U 22051AC  22145.85399494  .00017992  00000+0  13237-3 0  9997
2 52559  53.2201 234.0513 0003128  29.6860 330.4337 15.73192419  2427
STARLINK-3956           
1 52560U 22051AD  22145.85346471  .00105567  00000+0  74786-3 0  9998
2 52560  53.2194 234.0484 0002773  29.4306 330.6870 15.73175830  2427
STARLINK-3955           
1 52561U 22051AE  22145.85577280 -.00279429  00000+0 -23437-2 0  9990
2 52561  53.2224 234.0621 0003329  26.6378 333.4811 15.70067212  2428
STARLINK-3957           
1 52562U 22051AF  22145.85326406  .00085948  00000+0  61097-3 0  9997
2 52562  53.2207 234.0468 0003579  24.3921 335.7268 15.73178575  2424
STARLINK-3942           
1 52563U 22051AG  22145.79220331 -.00136830  00000+0 -11292-2 0  9991
2 52563  53.2207 234.3759 0003512  20.7056 339.4104 15.69996527  2416
STARLINK-3959           
1 52564U 22051AH  22145.85513263 -.00405144  00000+0 -34563-2 0  9991
2 52564  53.2226 234.0588 0001961  16.4831 343.6251 15.70041596  2424
STARLINK-3911           
1 52565U 22051AJ  22145.85336790  .00059409  00000+0  42548-3 0  9990
2 52565  53.2197 234.0472 0003335  28.7765 331.3438 15.73153611  2429
STARLINK-3938           
1 52566U 22051AK  22145.79135755 -.00093647  00000+0 -76577-3 0  9995
2 52566  53.2214 234.3719 0002048  12.9902 347.1169 15.70052497  2417
STARLINK-3929           
1 52567U 22051AL  22145.85314180  .00053005  00000+0  37995-3 0  9997
2 52567  53.2200 234.0455 0003259  30.1203 330.0004 15.73180233  2353
STARLINK-3930           
1 52568U 22051AM  22145.85261988  .00011553  00000+0  86446-4 0  9993
2 52568  53.2200 234.0428 0002198  24.9854 335.1272 15.73248802  2426
STARLINK-3927           
1 52569U 22051AN  22145.85304113 -.00001155  00000+0 -37939-5 0  9995
2 52569  53.2200 234.0454 0003263  25.5160 334.6021 15.73181247  2354
STARLINK-3924           
1 52570U 22051AP  22145.85239858  .00011077  00000+0  83153-4 0  9990
2 52570  53.2207 234.0414 0003237  24.6896 335.4279 15.73225399  2425
STARLINK-3901           
1 52574U 22051AQ  22145.85273318  .00020188  00000+0  14806-3 0  9994
2 52574  53.2195 234.0432 0002826  43.2511 316.8731 15.73175076  2353
STARLINK-3920           
1 52575U 22051AR  22145.78866896 -.00008144  00000+0 -53738-4 0  9994
2 52575  53.2207 234.3532 0002690  27.4641 332.6521 15.73156668  2415
STARLINK-3932           
1 52576U 22051AS  22145.85251878  .00055344  00000+0  39581-3 0  9992
2 52576  53.2213 234.0413 0003573  29.1796 330.9423 15.73214690  2354
STARLINK-3836           
1 52577U 22051AT  22145.79063123 -.00465778  00000+0 -39915-2 0  9998
2 52577  53.2228 234.3688 0001814  42.0524 318.0634 15.70111118  2413
STARLINK-3833           
1 52578U 22051AU  22145.72717411 -.00378531  00000+0 -31848-2 0  9995
2 52578  53.2229 234.6822 0002034  39.0359 321.0807 15.70294776  2402
STARLINK-3893           
1 52579U 22051AV  22145.85400041 -.00264307  00000+0 -22117-2 0  9992
2 52579  53.2232 234.0536 0003231  31.2043 328.9167 15.70078035  2422
STARLINK-3919           
1 52580U 22051AW  22145.79051751 -.00425511  00000+0 -36233-2 0  9997
2 52580  53.2228 234.3666 0002189  44.0156 316.1037 15.70143961  2419
STARLINK-3915           
1 52581U 22051AX  22145.85156799  .00018984  00000+0  13948-3 0  9992
2 52581  53.2222 234.0368 0003211  28.6145 331.5050 15.73179391  2351
STARLINK-3886           
1 52582U 22051AY  22145.85188274  .00040804  00000+0  29392-3 0  9992
2 52582  53.2190 234.0370 0002166  34.9734 325.1428 15.73184155  2421
STARLINK-3895           
1 52583U 22051AZ  22145.85147122  .00018360  00000+0  13516-3 0  9993
2 52583  53.2204 234.0366 0003228  22.5482 337.5679 15.73160823  2359
STARLINK-3922           
1 52584U 22051BA  22145.85166507  .00010890  00000+0  81986-4 0  9999
2 52584  53.2183 234.0357 0002022  40.1597 319.9573 15.73177744  2425
STARLINK-3906           
1 52585U 22051BB  22145.91667824 -.00063938  00000+0 -45488-3 0  9994
2 52585  53.2187 233.7116 0002028  21.3579 349.6110 15.73183585  2434
STARLINK-3910           
1 52586U 22051BC  22145.85135888 -.00037277  00000+0 -26217-3 0  9994
2 52586  53.2184 234.0341 0001708  37.1655 322.9483 15.73215327  2426
STARLINK-3867           
1 52587U 22051BD  22145.85114045  .00095714  00000+0  67793-3 0  9999
2 52587  53.2217 234.0331 0002467  18.1873 341.9235 15.73222926  2426
STARLINK-3917           
1 52588U 22051BE  22145.85103781 -.00002531  00000+0 -13615-4 0  9997
2 52588  53.2220 234.0320 0003569  33.6659 326.4587 15.73155751  2358
FALCON 9 DEB            
1 52589U 22051BF  22145.84900949  .00223393  29807-4  65483-3 0  9997
2 52589  53.2315 233.2922 0011771 335.1423  24.9037 15.92234392  2367
FALCON 9 DEB            
1 52595U 22051BG  22145.84511692  .00263886  37609-4  73825-3 0  9996
2 52595  53.2295 233.2654 0009681 336.1679  23.8900 15.93121870  2368
FALCON 9 DEB            
1 52596U 22051BH  22145.83629927  .00288093  43394-4  74366-3 0  9993
2 52596  53.2256 233.1998 0012146 316.1991  43.8074 15.94563260  2369
FALCON 9 DEB            
1 52597U 22051BJ  22145.83449958  .00263934  38159-4  68162-3 0  9995
2 52597  53.2236 233.1835 0009570 306.9795  53.0358 15.94626689  2367
STARLINK-4019           
1 52598U 22052A   22145.91667824 -.00258804  00000+0 -19099-2 0  9995
2 52598  53.2172  24.7863 0001151  98.7934 213.2599 15.73040837  2123
STARLINK-4024           
1 52599U 22052B   22145.86226507  .00021967  00000+0  16035-3 0  9993
2 52599  53.2160  25.0655 0001325 126.9183 233.1959 15.73225191  2553
STARLINK-4026           
1 52600U 22052C   22145.91667824  .00048576  00000+0  34882-3 0  9998
2 52600  53.2157  24.7958 0001359 106.8419 203.3658 15.73180192  2129
